#dP2024  2  6 18  0  0.00000000      96 __u+U IGS20 EXT  IAC
## 2300 237600.00000000   900.00000000 60346 0.7500000000000
+  118   C06C07C08C09C10C11C12C13C14C16C19C20C21C22C23C24C25
+        C26C27C28C29C30C32C33C34C35C36C37C38C39C40C41C42C43
+        C44C45C46E02E03E04E05E07E08E09E10E11E12E13E14E15E18
+        E19E21E24E25E26E27E30E31E33E34E36G01G02G03G04G05G06
+        G07G08G09G10G11G12G13G14G15G16G17G18G19G20G21G22G23
+        G24G25G26G27G28G29G30G31G32J02R01R02R03R04R05R07R08
+        R09R11R12R13R14R15R16R17R18R19R20R21R22R24R25R26  0
++         9  8 10 11  8 12  7  9  8 10 10  8  9  7  9  9  9
++         8  8  8  9  8  8  8 10 11  9  8  9 10 10  9  8  8
++        10  8  8  7  8  7  7  7  8  7  8  7  7  8  8  8  7
++         7  6  7  7  6  7  7  7  7  7  7  6  6  6  9  7  7
++         8  8  7  8  7  7  6  6  7  7  7  6  6  6  6  6  7
++         7  6  6  8  8  6  6  7  9  9  9  7  8  8  7  6  8
++         7  9  8  7  7  8  7  9  8  9  8  8  7  9  8  7  0
%c M  cc GPS ccc cccc cccc cccc cccc ccccc ccccc ccccc ccccc
%c cc cc ccc ccc cccc cccc cccc cccc ccccc ccccc ccccc ccccc
%f  0.0000000  0.000000000  0.00000000000  0.000000000000000
%f  0.0000000  0.000000000  0.00000000000  0.000000000000000
%i    0    0    0    0      0      0      0      0         0
%i    0    0    0    0      0      0      0      0         0
/* IAC                                ULTRA-RAPID PREDICTION
/* S/V CLOCKS ARE ALIGNED TO GNSS TIME                      
/* G:C1WC2W R:C1PC2P E:C1XC5X C:C2IC6I J:C1CC2S             
/* PCV:IGS20_2290 OL/AL:FES2004  NONE     YN ORB:CoN CLK:CoN
*  2024 02 06 19 45  0.00000000
PC06 -10229.211797  40619.981463   6097.668796     93.527330
PC07  -5055.686425  28006.915540 -30982.027020   -759.287577
PC08 -18976.143328  25321.340182  27745.011422     57.938425
PC09  -5872.012808  41963.612846  -2844.322413   -454.642592
PC10   2540.736936  30076.394887 -28931.475153     95.710890
PC11 -15482.516550 -10637.271468 -20567.148557    397.056040
PC12  -8658.370959 -25745.846534  -6345.524948    776.344786
PC13  -9306.350266  25937.711245  31979.442880    414.962813
PC14 -26531.338296  -8734.966716    526.836639    132.266818
PC16 -11311.886976  40020.088681   8210.761785   -324.564837
PC19  26103.092366   2171.672787  -9567.853728   -929.412913
PC20  23532.706362  13197.424155   7083.128979   -137.552740
PC21  -6417.187391 -17240.879450 -20972.483265   -962.674212
PC22  13788.735127 -10773.990424 -21731.273895   -119.474946
PC23 -20085.298820  19276.633535  -1888.374970   -783.136617
PC24 -12557.458392 -10650.971336  22505.428903    860.303851
PC25 -22946.643466   7120.549682  14161.297673    319.857110
PC26   4290.626854 -21157.694710  17679.623875   -245.489071
PC27   3527.657090  27602.300210  -2225.441618    267.461984
PC28  -7797.208691  21132.413858 -16470.151333    203.313667
PC29  16231.077846   -458.519630  22691.950561    238.273243
PC30  14246.355102  19799.701838  13572.421825    -22.257705
PC32   6395.738160  17198.037314  21040.401216   -563.806342
PC33 -26168.486574  -2042.414766   9506.983972   -946.952203
PC34 -14810.733674 -18473.044698 -14760.069635    363.619532
PC35   7122.356641 -21326.636740  16491.265357    439.730012
PC36  23004.311798  -6128.079046 -14558.712416    -24.495436
PC37  -5164.213473  21168.397100 -17418.743406   -934.744830
PC38 -25040.084023  26883.678753  20614.415979    135.171402
PC39 -12961.232214  37337.322264  15051.515426     -7.026876
PC40  -9081.355235  22177.736138 -34662.420257    -55.367141
PC41 -14574.179347  10415.960820  21457.619434   -887.510303
PC42 -22696.303529 -13844.234689  -8481.406993   -457.043169
PC43 -16497.247178   -567.065957 -22506.279674     59.386791
PC44  -4476.644966 -27423.884324   2351.411318    376.621343
PC45  20031.355988 -19332.043584   2125.456152    -68.420324
PC46  13310.766888   9774.235796 -22512.674895   -121.740622
PE02  -6371.005724 -15947.805808  24095.586432    101.259355
PE03 -12225.784568 -25582.847646  -8513.642273    -92.090482
PE04  22050.420974  16894.680523 -10219.909713   -321.209908
PE05   4591.418409 -19234.800367 -22020.095544   4717.550533
PE07 -19053.672379   1184.874181  22628.879132   -102.398774
PE08 -21889.533212 -17434.583867   9659.059124   -219.795138
PE09  18996.934407   -996.208764 -22672.828848   -326.697276
PE10  17291.491773  -1601.960450  23970.052372   -599.941859
PE11  18633.849450 -12961.953327  18983.882538   3259.930873
PE12  13639.281829   8862.433760  24734.284252   -895.151015
PE13 -18585.235160  12342.818449 -19450.891765    -20.110451
PE14 -19640.373230 -24869.285155  -2028.405578     31.988730
PE15 -13306.018775  -9367.703876 -24713.579569    -84.352459
PE18  11375.472640  21360.180803  -3113.925678    296.969005
PE19  10410.428251  25625.182981  10558.856672   -665.510781
PE21 -14998.574093  15863.542633 -19993.674541   -577.694171
PE24  28743.468788  -6146.641019   3596.683263   -583.805116
PE25  15417.223941 -15753.755906  19758.214234      0.528632
PE26 -12593.169878  26695.244502  -2257.195305    361.201146
PE27 -28585.764311   6509.928406  -4027.097720   -268.190554
PE30 -24994.359346  -6823.399166  14280.070867   -885.770529
PE31  25172.415254   6572.198992 -14128.846538    -15.417704
PE33   -101.463648  25531.084979  14986.257102      7.180123
PE34   -354.224745 -25266.959659 -15415.305428    -93.186439
PE36  12924.809678 -26460.258876   2930.936734   -182.311490
PG01  12469.362068 -22837.455389   4033.370913    168.543986
PG02  14679.383906 -18300.635972  12705.629308   -489.485881
PG03  19599.159657 -11900.426871 -13447.773213    176.309910
PG04   9285.614034 -12501.862775 -21484.219893    285.188297
PG05 -25807.518252   6218.408833   1654.140694   -160.816542
PG06  -9298.654536 -13415.351930 -20855.469948    417.168429
PG07   3705.987532 -24929.412766   8052.112426    -55.679117
PG08  15667.930281  -4431.687041  20961.842334   -165.762627
PG09  -2879.367824 -21042.771013 -15995.096116     83.474415
PG10  13544.877482  11522.618226  20039.284273    -72.286100
PG11 -15571.053500  -1517.873769 -21432.139948   -566.845777
PG12 -20520.875326  10785.022661 -13186.215081   -475.405293
PG13 -18135.209878  -6296.719532  18248.261355    623.097041
PG14  -9349.621518 -13889.103943  20678.980892    318.840364
PG15 -15250.377744   6314.786623  20356.438985    124.995532
PG16  26518.369373   1269.258919  -4064.786433   -368.325577
PG17 -11916.184251 -23180.301383   5089.664363    717.787480
PG18  -3780.411744  24661.520411   8849.126644   -549.744227
PG19 -16850.380328 -20216.700360  -4994.680008    437.031009
PG20 -23860.984453   -637.920801 -11411.786331    388.485530
PG21  15951.054381 -13105.493579  16614.540309    135.856738
PG22 -16376.681714 -11489.064965  17754.056359     35.534844
PG23   -307.431869  15048.622350  21891.667523    150.687802
PG24 -15000.606006  17028.254369  13048.706326   -427.340426
PG25  -9703.384472  15626.207303 -19401.498467    487.770168
PG26  22233.062990   5544.665457 -13879.736411    192.936480
PG27  20219.457934   8654.601249  14920.140444     -1.691158
PG28   8568.669110  16103.654174 -19327.763767   -122.425627
PG29   -136.016111  20427.377926 -16969.039271   -607.456641
PG30  -4533.775807 -20617.332296  16083.314306   -435.957613
PG31  14027.476469   6501.892958 -21799.212160   -227.677038
PG32  15683.639517  21510.181387   1891.796168   -610.137918
PJ02 -34058.045096  15429.840209 -14849.337785     -1.758578
PR01  12098.816394  15257.537618  16476.643456     76.487533
PR02  22037.347165  12916.058768    355.818102    -22.454312
PR03  19788.963200   2613.125595 -15870.284029     94.038154
PR04   6629.004162  -8515.660151 -23080.548308    222.303390
PR05  -9931.648979 -15292.769298 -17809.093815    126.497427
PR07 -19243.269681  -1913.552101  16648.552387     75.236511
PR08  -6361.987862   8865.338232  23118.508451    -74.310717
PR09 -15282.693242  -2263.244626  20334.277617    168.552191
PR11 -18078.320590  15804.788431  -8622.191593     35.189529
PR12  -1526.695130  13120.594107 -21801.196030     36.454921
PR13  13234.149243   3988.342495 -21461.080205    -44.093666
PR14  22483.300334  -9488.124292  -7393.912984     26.021507
PR15  17238.335036 -15923.767208  10004.695722     82.431767
PR16   1798.475550 -13129.925490  21789.870627     23.075643
PR17  10295.124108  -5863.704508  22605.530821     59.036191
PR18   6186.078316 -20793.732833  13389.406052    126.052746
PR19    435.867128 -25477.361671  -1143.231992   -264.828049
PR20  -8061.873363 -14473.987351 -19364.573543   -107.881928
PR21 -10225.174538   6069.555921 -22560.081600    -74.904773
PR22  -6567.704553  21353.208824 -12299.772730    106.826201
PR24   9212.647461  13610.021655  19524.886212    -42.866358
PR25 -10816.030144   5510.960967 -22424.440906     87.906155
PR26  -7233.725381   8327.729290  23023.981557   -199.673566
EOF
